[{"OBJECT_NAME":"NEXTSAT-1","OBJECT_ID":"2018-099BF","EPOCH":"2026-03-09T16:24:07.497504","MEAN_MOTION":15.08057555,"ECCENTRICITY":0.001132,"INCLINATION":97.4203,"RA_OF_ASC_NODE":114.8574,"ARG_OF_PERICENTER":323.961,"MEAN_ANOMALY":36.0854,"EPHEMERIS_TYPE":0,"CLASSIFICATION_TYPE":"U","NORAD_CAT_ID":43811,"ELEMENT_SET_NO":999,"REV_AT_EPOCH":39688,"BSTAR":0.00029857014,"MEAN_MOTION_DOT":4.546e-5,"MEAN_MOTION_DDOT":0},{"OBJECT_NAME":"STARLINK-3959","OBJECT_ID":"2022-051AH","EPOCH":"2026-03-09T13:28:37.493184","MEAN_MOTION":15.08844217,"ECCENTRICITY":0.0001479,"INCLINATION":53.2174,"RA_OF_ASC_NODE":134.7056,"ARG_OF_PERICENTER":101.7191,"MEAN_ANOMALY":258.3967,"EPHEMERIS_TYPE":0,"CLASSIFICATION_TYPE":"U","NORAD_CAT_ID":52564,"ELEMENT_SET_NO":999,"REV_AT_EPOCH":21135,"BSTAR":-6.3336e-5,"MEAN_MOTION_DOT":-1.296e-5,"MEAN_MOTION_DDOT":0}]
