NEXTSAT-1               
1 43811U 18099BF  26068.68342010  .00004546  00000+0  29857-3 0  9992
2 43811  97.4203 114.8574 0011320 323.9610  36.0854 15.08057555396886
STARLINK-3959           
1 52564U 22051AH  26068.56154506 -.00001296  00000+0 -63336-4 0  9990
2 52564  53.2174 134.7056 0001479 101.7191 258.3967 15.08844217211355
